[{"OBJECT_NAME":"STARLINK-5594","OBJECT_ID":"2023-028B","EPOCH":"2025-08-01T00:40:08.566752","MEAN_MOTION":14.98331066,"ECCENTRICITY":0.0002848,"INCLINATION":69.9997,"RA_OF_ASC_NODE":80.9664,"ARG_OF_PERICENTER":263.7659,"MEAN_ANOMALY":96.3175,"EPHEMERIS_TYPE":0,"CLASSIFICATION_TYPE":"U","NORAD_CAT_ID":55742,"ELEMENT_SET_NO":999,"REV_AT_EPOCH":13298,"BSTAR":1.48e-5,"MEAN_MOTION_DOT":8.4e-7,"MEAN_MOTION_DDOT":0},{"OBJECT_NAME":"STARLINK-5602","OBJECT_ID":"2023-028C","EPOCH":"2025-08-01T00:46:09.423264","MEAN_MOTION":14.98327778,"ECCENTRICITY":0.0003018,"INCLINATION":69.9995,"RA_OF_ASC_NODE":80.982,"ARG_OF_PERICENTER":268.5333,"MEAN_ANOMALY":91.5481,"EPHEMERIS_TYPE":0,"CLASSIFICATION_TYPE":"U","NORAD_CAT_ID":55743,"ELEMENT_SET_NO":999,"REV_AT_EPOCH":13298,"BSTAR":1.2521e-5,"MEAN_MOTION_DOT":5.6e-7,"MEAN_MOTION_DDOT":0},{"OBJECT_NAME":"STARLINK-5601","OBJECT_ID":"2023-028D","EPOCH":"2025-08-01T00:40:23.088000","MEAN_MOTION":14.98328672,"ECCENTRICITY":0.0002697,"INCLINATION":69.9997,"RA_OF_ASC_NODE":80.9666,"ARG_OF_PERICENTER":268.522,"MEAN_ANOMALY":91.563,"EPHEMERIS_TYPE":0,"CLASSIFICATION_TYPE":"U","NORAD_CAT_ID":55744,"ELEMENT_SET_NO":999,"REV_AT_EPOCH":13298,"BSTAR":8.4318e-6,"MEAN_MOTION_DOT":8.0e-8,"MEAN_MOTION_DDOT":0},{"OBJECT_NAME":"STARLINK-5579","OBJECT_ID":"2023-028F","EPOCH":"2025-07-31T19:09:39.570624","MEAN_MOTION":14.98326316,"ECCENTRICITY":0.0003226,"INCLINATION":69.9997,"RA_OF_ASC_NODE":81.3692,"ARG_OF_PERICENTER":274.1749,"MEAN_ANOMALY":85.9041,"EPHEMERIS_TYPE":0,"CLASSIFICATION_TYPE":"U","NORAD_CAT_ID":55746,"ELEMENT_SET_NO":999,"REV_AT_EPOCH":13295,"BSTAR":-9.1744e-5,"MEAN_MOTION_DOT":-1.187e-5,"MEAN_MOTION_DDOT":0},{"OBJECT_NAME":"STARLINK-5539","OBJECT_ID":"2023-028G","EPOCH":"2025-08-01T01:58:14.932992","MEAN_MOTION":14.983283,"ECCENTRICITY":0.0002889,"INCLINATION":70.0003,"RA_OF_ASC_NODE":80.7545,"ARG_OF_PERICENTER":266.23,"MEAN_ANOMALY":93.8529,"EPHEMERIS_TYPE":0,"CLASSIFICATION_TYPE":"U","NORAD_CAT_ID":55747,"ELEMENT_SET_NO":999,"REV_AT_EPOCH":13299,"BSTAR":-3.9585e-5,"MEAN_MOTION_DOT":-5.65e-6,"MEAN_MOTION_DDOT":0},{"OBJECT_NAME":"STARLINK-5580","OBJECT_ID":"2023-028H","EPOCH":"2025-07-31T22:39:57.896640","MEAN_MOTION":14.98330469,"ECCENTRICITY":0.0002946,"INCLINATION":70.0001,"RA_OF_ASC_NODE":81.0767,"ARG_OF_PERICENTER":269.4387,"MEAN_ANOMALY":90.6435,"EPHEMERIS_TYPE":0,"CLASSIFICATION_TYPE":"U","NORAD_CAT_ID":55748,"ELEMENT_SET_NO":999,"REV_AT_EPOCH":13297,"BSTAR":2.7658e-5,"MEAN_MOTION_DOT":2.37e-6,"MEAN_MOTION_DDOT":0},{"OBJECT_NAME":"STARLINK-5573","OBJECT_ID":"2023-028K","EPOCH":"2025-07-31T22:33:56.910528","MEAN_MOTION":14.98335249,"ECCENTRICITY":0.000292,"INCLINATION":70.0002,"RA_OF_ASC_NODE":81.0624,"ARG_OF_PERICENTER":269.2351,"MEAN_ANOMALY":90.8473,"EPHEMERIS_TYPE":0,"CLASSIFICATION_TYPE":"U","NORAD_CAT_ID":55750,"ELEMENT_SET_NO":999,"REV_AT_EPOCH":13297,"BSTAR":5.5082e-5,"MEAN_MOTION_DOT":5.64e-6,"MEAN_MOTION_DDOT":0},{"OBJECT_NAME":"STARLINK-5577","OBJECT_ID":"2023-028L","EPOCH":"2025-08-01T02:04:15.435264","MEAN_MOTION":14.98329572,"ECCENTRICITY":0.000257,"INCLINATION":70.0002,"RA_OF_ASC_NODE":80.769,"ARG_OF_PERICENTER":268.9639,"MEAN_ANOMALY":91.1225,"EPHEMERIS_TYPE":0,"CLASSIFICATION_TYPE":"U","NORAD_CAT_ID":55751,"ELEMENT_SET_NO":999,"REV_AT_EPOCH":13299,"BSTAR":-3.2113e-5,"MEAN_MOTION_DOT":-4.76e-6,"MEAN_MOTION_DDOT":0},{"OBJECT_NAME":"STARLINK-5613","OBJECT_ID":"2023-028M","EPOCH":"2025-07-31T21:57:53.293824","MEAN_MOTION":14.9833212,"ECCENTRICITY":0.0002855,"INCLINATION":69.9997,"RA_OF_ASC_NODE":80.9733,"ARG_OF_PERICENTER":269.9464,"MEAN_ANOMALY":90.1368,"EPHEMERIS_TYPE":0,"CLASSIFICATION_TYPE":"U","NORAD_CAT_ID":55752,"ELEMENT_SET_NO":999,"REV_AT_EPOCH":13297,"BSTAR":2.8814e-5,"MEAN_MOTION_DOT":2.51e-6,"MEAN_MOTION_DDOT":0},{"OBJECT_NAME":"STARLINK-5617","OBJECT_ID":"2023-028N","EPOCH":"2025-07-31T20:46:02.263872","MEAN_MOTION":14.98330274,"ECCENTRICITY":0.0002711,"INCLINATION":70.0002,"RA_OF_ASC_NODE":81.2028,"ARG_OF_PERICENTER":272.0454,"MEAN_ANOMALY":88.0394,"EPHEMERIS_TYPE":0,"CLASSIFICATION_TYPE":"U","NORAD_CAT_ID":55753,"ELEMENT_SET_NO":999,"REV_AT_EPOCH":13296,"BSTAR":-4.2202e-5,"MEAN_MOTION_DOT":-5.96e-6,"MEAN_MOTION_DDOT":0},{"OBJECT_NAME":"STARLINK-5612","OBJECT_ID":"2023-028P","EPOCH":"2025-08-01T01:22:11.140896","MEAN_MOTION":14.9831476,"ECCENTRICITY":0.0003137,"INCLINATION":70.0002,"RA_OF_ASC_NODE":80.6661,"ARG_OF_PERICENTER":267.4877,"MEAN_ANOMALY":92.5923,"EPHEMERIS_TYPE":0,"CLASSIFICATION_TYPE":"U","NORAD_CAT_ID":55754,"ELEMENT_SET_NO":999,"REV_AT_EPOCH":13299,"BSTAR":9.3405e-5,"MEAN_MOTION_DOT":1.021e-5,"MEAN_MOTION_DDOT":0},{"OBJECT_NAME":"STARLINK-5619","OBJECT_ID":"2023-028Q","EPOCH":"2025-08-01T01:04:24.294432","MEAN_MOTION":14.98325346,"ECCENTRICITY":0.0002887,"INCLINATION":69.9998,"RA_OF_ASC_NODE":80.6127,"ARG_OF_PERICENTER":269.9025,"MEAN_ANOMALY":90.1803,"EPHEMERIS_TYPE":0,"CLASSIFICATION_TYPE":"U","NORAD_CAT_ID":55755,"ELEMENT_SET_NO":999,"REV_AT_EPOCH":13299,"BSTAR":-0.00017128,"MEAN_MOTION_DOT":-2.136e-5,"MEAN_MOTION_DDOT":0},{"OBJECT_NAME":"STARLINK-5614","OBJECT_ID":"2023-028R","EPOCH":"2025-08-01T00:58:08.222880","MEAN_MOTION":14.98333596,"ECCENTRICITY":0.0002902,"INCLINATION":69.9998,"RA_OF_ASC_NODE":80.6058,"ARG_OF_PERICENTER":268.9263,"MEAN_ANOMALY":91.1563,"EPHEMERIS_TYPE":0,"CLASSIFICATION_TYPE":"U","NORAD_CAT_ID":55756,"ELEMENT_SET_NO":999,"REV_AT_EPOCH":13299,"BSTAR":-5.1771e-5,"MEAN_MOTION_DOT":-7.11e-6,"MEAN_MOTION_DDOT":0},{"OBJECT_NAME":"STARLINK-5544","OBJECT_ID":"2023-028S","EPOCH":"2025-07-31T20:39:47.246400","MEAN_MOTION":14.98331691,"ECCENTRICITY":0.0002756,"INCLINATION":69.9996,"RA_OF_ASC_NODE":81.1854,"ARG_OF_PERICENTER":268.4838,"MEAN_ANOMALY":91.6006,"EPHEMERIS_TYPE":0,"CLASSIFICATION_TYPE":"U","NORAD_CAT_ID":55757,"ELEMENT_SET_NO":999,"REV_AT_EPOCH":13296,"BSTAR":1.8294e-5,"MEAN_MOTION_DOT":1.25e-6,"MEAN_MOTION_DDOT":0},{"OBJECT_NAME":"STARLINK-5072","OBJECT_ID":"2023-028T","EPOCH":"2025-07-31T20:27:46.206432","MEAN_MOTION":14.98326687,"ECCENTRICITY":0.0002991,"INCLINATION":69.9999,"RA_OF_ASC_NODE":81.1565,"ARG_OF_PERICENTER":269.7452,"MEAN_ANOMALY":90.3364,"EPHEMERIS_TYPE":0,"CLASSIFICATION_TYPE":"U","NORAD_CAT_ID":55758,"ELEMENT_SET_NO":999,"REV_AT_EPOCH":13296,"BSTAR":2.4181e-5,"MEAN_MOTION_DOT":1.96e-6,"MEAN_MOTION_DDOT":0},{"OBJECT_NAME":"STARLINK-5532","OBJECT_ID":"2023-028V","EPOCH":"2025-07-31T21:39:51.729984","MEAN_MOTION":14.98327018,"ECCENTRICITY":0.0002882,"INCLINATION":69.9996,"RA_OF_ASC_NODE":80.9286,"ARG_OF_PERICENTER":270.0309,"MEAN_ANOMALY":90.052,"EPHEMERIS_TYPE":0,"CLASSIFICATION_TYPE":"U","NORAD_CAT_ID":55760,"ELEMENT_SET_NO":999,"REV_AT_EPOCH":13297,"BSTAR":-4.2998e-5,"MEAN_MOTION_DOT":-6.06e-6,"MEAN_MOTION_DDOT":0},{"OBJECT_NAME":"STARLINK-5611","OBJECT_ID":"2023-028W","EPOCH":"2025-07-31T22:45:54.310464","MEAN_MOTION":14.983218,"ECCENTRICITY":0.0002753,"INCLINATION":69.9999,"RA_OF_ASC_NODE":61.2104,"ARG_OF_PERICENTER":269.9674,"MEAN_ANOMALY":90.1169,"EPHEMERIS_TYPE":0,"CLASSIFICATION_TYPE":"U","NORAD_CAT_ID":55761,"ELEMENT_SET_NO":999,"REV_AT_EPOCH":13346,"BSTAR":-6.8752e-5,"MEAN_MOTION_DOT":-9.13e-6,"MEAN_MOTION_DDOT":0}]
