STARLINK-5594           
1 55742U 23028B   25213.02787693  .00000084  00000+0  14800-4 0  9991
2 55742  69.9997  80.9664 0002848 263.7659  96.3175 14.98331066132982
STARLINK-5602           
1 55743U 23028C   25213.03205351  .00000056  00000+0  12521-4 0  9996
2 55743  69.9995  80.9820 0003018 268.5333  91.5481 14.98327778132989
STARLINK-5601           
1 55744U 23028D   25213.02804500  .00000008  00000+0  84318-5 0  9998
2 55744  69.9997  80.9666 0002697 268.5220  91.5630 14.98328672132987
STARLINK-5579           
1 55746U 23028F   25212.79837466 -.00001187  00000+0 -91744-4 0  9991
2 55746  69.9997  81.3692 0003226 274.1749  85.9041 14.98326316132954
STARLINK-5539           
1 55747U 23028G   25213.08211728 -.00000565  00000+0 -39585-4 0  9996
2 55747  70.0003  80.7545 0002889 266.2300  93.8529 14.98328300132993
STARLINK-5580           
1 55748U 23028H   25212.94442010  .00000237  00000+0  27658-4 0  9993
2 55748  70.0001  81.0767 0002946 269.4387  90.6435 14.98330469132974
STARLINK-5573           
1 55750U 23028K   25212.94024202  .00000564  00000+0  55082-4 0  9990
2 55750  70.0002  81.0624 0002920 269.2351  90.8473 14.98335249132976
STARLINK-5577           
1 55751U 23028L   25213.08628976 -.00000476  00000+0 -32113-4 0  9999
2 55751  70.0002  80.7690 0002570 268.9639  91.1225 14.98329572132995
STARLINK-5613           
1 55752U 23028M   25212.91520016  .00000251  00000+0  28814-4 0  9999
2 55752  69.9997  80.9733 0002855 269.9464  90.1368 14.98332120132977
STARLINK-5617           
1 55753U 23028N   25212.86530398 -.00000596  00000+0 -42202-4 0  9999
2 55753  70.0002  81.2028 0002711 272.0454  88.0394 14.98330274132966
STARLINK-5612           
1 55754U 23028P   25213.05707339  .00001021  00000+0  93405-4 0  9996
2 55754  70.0002  80.6661 0003137 267.4877  92.5923 14.98314760132996
STARLINK-5619           
1 55755U 23028Q   25213.04472563 -.00002136  00000+0 -17128-3 0  9991
2 55755  69.9998  80.6127 0002887 269.9025  90.1803 14.98325346132991
STARLINK-5614           
1 55756U 23028R   25213.04037295 -.00000711  00000+0 -51771-4 0  9991
2 55756  69.9998  80.6058 0002902 268.9263  91.1563 14.98333596132996
STARLINK-5544           
1 55757U 23028S   25212.86096350  .00000125  00000+0  18294-4 0  9998
2 55757  69.9996  81.1854 0002756 268.4838  91.6006 14.98331691132963
STARLINK-5072           
1 55758U 23028T   25212.85261813  .00000196  00000+0  24181-4 0  9996
2 55758  69.9999  81.1565 0002991 269.7452  90.3364 14.98326687132965
STARLINK-5532           
1 55760U 23028V   25212.90268206 -.00000606  00000+0 -42998-4 0  9992
2 55760  69.9996  80.9286 0002882 270.0309  90.0520 14.98327018132978
STARLINK-5611           
1 55761U 23028W   25212.94854526 -.00000913  00000+0 -68752-4 0  9990
2 55761  69.9999  61.2104 0002753 269.9674  90.1169 14.98321800133460
